{"type": "FeatureCollection", "features": [ {"type": "Feature", "properties": {"norad_id": 30224, "name": "FENGYUN 1C DEB", "group": "fengyun-1c-debris", "lat": -60.08821440398867, "lon": 33.63515582297049, "alt_km": 904.6571212154186, "timestamp": "2025-12-04T03:47:54.818043+00:00", "meta": {"OBJECT_NAME": "FENGYUN 1C DEB", "OBJECT_ID": "1999-025WH", "EPOCH": "2025-12-03T09:09:42.768000", "MEAN_MOTION": 13.89853649, "ECCENTRICITY": 0.0111464, "INCLINATION": 99.4848, "RA_OF_ASC_NODE": 15.951, "ARG_OF_PERICENTER": 8.4343, "MEAN_ANOMALY": 8.0416, "EPHEMERIS_TYPE": 0, "CLASSIFICATION_TYPE": "U", "NORAD_CAT_ID": 30224, "ELEMENT_SET_NO": 999, "REV_AT_EPOCH": 95611, "BSTAR": 0.00044379, "MEAN_MOTION_DOT": 5.27e-06, "MEAN_MOTION_DDOT": 0}, "tle": {"line1": "1 30224U 99025WH  25337.38174500  .00000527  00000+0  44379-3 0  9997", "line2": "2 30224  99.4848  15.9510 0111464   8.4343   8.0416 13.89853649956112"}}, "geometry": {"type": "Point", "coordinates": [33.63515582297049, -60.08821440398867]}}, {"type": "Feature", "properties": {"norad_id": 30225, "name": "FENGYUN 1C DEB", "group": "fengyun-1c-debris", "lat": 46.643283874265464, "lon": -4.110941009352455, "alt_km": 803.8575979052412, "timestamp": "2025-12-04T03:47:54.818054+00:00", "meta": {"OBJECT_NAME": "FENGYUN 1C DEB", "OBJECT_ID": "1999-025WJ", "EPOCH": "2025-12-03T00:42:35.490816", "MEAN_MOTION": 14.1517376, "ECCENTRICITY": 0.01004821, "INCLINATION": 98.661, "RA_OF_ASC_NODE": 4.0827, "ARG_OF_PERICENTER": 113.47, "MEAN_ANOMALY": 307.9189, "EPHEMERIS_TYPE": 0, "CLASSIFICATION_TYPE": "U", "NORAD_CAT_ID": 30225, "ELEMENT_SET_NO": 999, "REV_AT_EPOCH": 97399, "BSTAR": 0.00021150138, "MEAN_MOTION_DOT": 3.89e-06, "MEAN_MOTION_DDOT": 0}, "tle": {"line1": "1 30225U 99025WJ  25337.02957744  .00000389  00000+0  21150-3 0  9996", "line2": "2 30225  98.6610   4.0827 0100482 113.4700 307.9189 14.15173760973995"}}, "geometry": {"type": "Point", "coordinates": [-4.110941009352455, 46.643283874265464]}}, {"type": "Feature", "properties": {"norad_id": 30229, "name": "FENGYUN 1C DEB", "group": "fengyun-1c-debris", "lat": -29.757874081880374, "lon": 42.227572953928934, "alt_km": 701.3493228417674, "timestamp": "2025-12-04T03:47:54.818064+00:00", "meta": {"OBJECT_NAME": "FENGYUN 1C DEB", "OBJECT_ID": "1999-025WN", "EPOCH": "2025-12-03T03:23:45.299328", "MEAN_MOTION": 14.6026144, "ECCENTRICITY": 0.00380964, "INCLINATION": 99.0639, "RA_OF_ASC_NODE": 35.88, "ARG_OF_PERICENTER": 70.0521, "MEAN_ANOMALY": 318.229, "EPHEMERIS_TYPE": 0, "CLASSIFICATION_TYPE": "U", "NORAD_CAT_ID": 30229, "ELEMENT_SET_NO": 999, "REV_AT_EPOCH": 98786, "BSTAR": 0.0024640901, "MEAN_MOTION_DOT": 0.00011977, "MEAN_MOTION_DDOT": 0}, "tle": {"line1": "1 30229U 99025WN  25337.14149652  .00011977  00000+0  24641-2 0  9996", "line2": "2 30229  99.0639  35.8800 0038096  70.0521 318.2290 14.60261440987860"}}, "geometry": {"type": "Point", "coordinates": [42.227572953928934, -29.757874081880374]}}, {"type": "Feature", "properties": {"norad_id": 30231, "name": "FENGYUN 1C DEB", "group": "fengyun-1c-debris", "lat": -77.67963547519476, "lon": 157.8600064569479, "alt_km": 943.378432684668, "timestamp": "2025-12-04T03:47:54.818074+00:00", "meta": {"OBJECT_NAME": "FENGYUN 1C DEB", "OBJECT_ID": "1999-025WQ", "EPOCH": "2025-12-03T03:01:46.596864", "MEAN_MOTION": 14.11610423, "ECCENTRICITY": 0.01289178, "INCLINATION": 98.8062, "RA_OF_ASC_NODE": 22.0624, "ARG_OF_PERICENTER": 56.4444, "MEAN_ANOMALY": 3.8895, "EPHEMERIS_TYPE": 0, "CLASSIFICATION_TYPE": "U", "NORAD_CAT_ID": 30231, "ELEMENT_SET_NO": 999, "REV_AT_EPOCH": 96884, "BSTAR": 0.00071028505, "MEAN_MOTION_DOT": 1.353e-05, "MEAN_MOTION_DDOT": 0}, "tle": {"line1": "1 30231U 99025WQ  25337.12623376  .00001353  00000+0  71029-3 0  9997", "line2": "2 30231  98.8062  22.0624 0128917  56.4444   3.8895 14.11610423968846"}}, "geometry": {"type": "Point", "coordinates": [157.8600064569479, -77.67963547519476]}}, {"type": "Feature", "properties": {"norad_id": 30232, "name": "FENGYUN 1C DEB", "group": "fengyun-1c-debris", "lat": 41.328707255525174, "lon": 170.11497762317285, "alt_km": 591.4443851571823, "timestamp": "2025-12-04T03:47:54.818083+00:00", "meta": {"OBJECT_NAME": "FENGYUN 1C DEB", "OBJECT_ID": "1999-025WR", "EPOCH": "2025-12-03T03:32:26.221344", "MEAN_MOTION": 14.63473764, "ECCENTRICITY": 0.01366767, "INCLINATION": 98.6936, "RA_OF_ASC_NODE": 176.7825, "ARG_OF_PERICENTER": 19.3933, "MEAN_ANOMALY": 99.9138, "EPHEMERIS_TYPE": 0, "CLASSIFICATION_TYPE": "U", "NORAD_CAT_ID": 30232, "ELEMENT_SET_NO": 999, "REV_AT_EPOCH": 99611, "BSTAR": 0.00080130841, "MEAN_MOTION_DOT": 4.694e-05, "MEAN_MOTION_DDOT": 0}, "tle": {"line1": "1 30232U 99025WR  25337.14752571  .00004694  00000+0  80131-3 0  9995", "line2": "2 30232  98.6936 176.7825 0136676  19.3933  99.9138 14.63473764996116"}}, "geometry": {"type": "Point", "coordinates": [170.11497762317285, 41.328707255525174]}}, {"type": "Feature", "properties": {"norad_id": 30234, "name": "FENGYUN 1C DEB", "group": "fengyun-1c-debris", "lat": -55.598405388155044, "lon": 2.0088279835395, "alt_km": 887.2048514059352, "timestamp": "2025-12-04T03:47:54.818094+00:00", "meta": {"OBJECT_NAME": "FENGYUN 1C DEB", "OBJECT_ID": "1999-025WT", "EPOCH": "2025-12-03T11:50:37.351104", "MEAN_MOTION": 14.16844692, "ECCENTRICITY": 0.0067094, "INCLINATION": 98.6342, "RA_OF_ASC_NODE": 348.5433, "ARG_OF_PERICENTER": 101.3479, "MEAN_ANOMALY": 53.542, "EPHEMERIS_TYPE": 0, "CLASSIFICATION_TYPE": "U", "NORAD_CAT_ID": 30234, "ELEMENT_SET_NO": 999, "REV_AT_EPOCH": 97325, "BSTAR": 0.00043383, "MEAN_MOTION_DOT": 8.47e-06, "MEAN_MOTION_DDOT": 0}, "tle": {"line1": "1 30234U 99025WT  25337.49348786  .00000847  00000+0  43383-3 0  9998", "line2": "2 30234  98.6342 348.5433 0067094 101.3479  53.5420 14.16844692973257"}}, "geometry": {"type": "Point", "coordinates": [2.0088279835395, -55.598405388155044]}}, {"type": "Feature", "properties": {"norad_id": 30235, "name": "FENGYUN 1C DEB", "group": "fengyun-1c-debris", "lat": 27.018694025560386, "lon": -178.92064228619228, "alt_km": 899.7088037437079, "timestamp": "2025-12-04T03:47:54.818103+00:00", "meta": {"OBJECT_NAME": "FENGYUN 1C DEB", "OBJECT_ID": "1999-025WU", "EPOCH": "2025-12-03T12:28:00.446304", "MEAN_MOTION": 14.08757416, "ECCENTRICITY": 0.0153217, "INCLINATION": 98.7502, "RA_OF_ASC_NODE": 355.9546, "ARG_OF_PERICENTER": 264.7591, "MEAN_ANOMALY": 251.4219, "EPHEMERIS_TYPE": 0, "CLASSIFICATION_TYPE": "U", "NORAD_CAT_ID": 30235, "ELEMENT_SET_NO": 999, "REV_AT_EPOCH": 96763, "BSTAR": 0.00059052, "MEAN_MOTION_DOT": 1.09e-05, "MEAN_MOTION_DDOT": 0}, "tle": {"line1": "1 30235U 99025WU  25337.51944961  .00001090  00000+0  59052-3 0  9990", "line2": "2 30235  98.7502 355.9546 0153217 264.7591 251.4219 14.08757416967634"}}, "geometry": {"type": "Point", "coordinates": [-178.92064228619228, 27.018694025560386]}}, {"type": "Feature", "properties": {"norad_id": 30237, "name": "FENGYUN 1C DEB", "group": "fengyun-1c-debris", "lat": 0.43653038131761474, "lon": -99.2960299131709, "alt_km": 767.5871990696314, "timestamp": "2025-12-04T03:47:54.818114+00:00", "meta": {"OBJECT_NAME": "FENGYUN 1C DEB", "OBJECT_ID": "1999-025WW", "EPOCH": "2025-12-03T05:26:08.539008", "MEAN_MOTION": 14.40651523, "ECCENTRICITY": 0.0013262, "INCLINATION": 98.8274, "RA_OF_ASC_NODE": 79.6751, "ARG_OF_PERICENTER": 335.1353, "MEAN_ANOMALY": 54.5445, "EPHEMERIS_TYPE": 0, "CLASSIFICATION_TYPE": "U", "NORAD_CAT_ID": 30237, "ELEMENT_SET_NO": 999, "REV_AT_EPOCH": 97561, "BSTAR": 0.0033196, "MEAN_MOTION_DOT": 0.00010574, "MEAN_MOTION_DDOT": 0}, "tle": {"line1": "1 30237U 99025WW  25337.22648772  .00010574  00000+0  33196-2 0  9998", "line2": "2 30237  98.8274  79.6751 0013262 335.1353  54.5445 14.40651523975613"}}, "geometry": {"type": "Point", "coordinates": [-99.2960299131709, 0.43653038131761474]}}, {"type": "Feature", "properties": {"norad_id": 30239, "name": "FENGYUN 1C DEB", "group": "fengyun-1c-debris", "lat": -0.27131405942006614, "lon": 129.5244531035508, "alt_km": 1121.9669006582435, "timestamp": "2025-12-04T03:47:54.818123+00:00", "meta": {"OBJECT_NAME": "FENGYUN 1C DEB", "OBJECT_ID": "1999-025WY", "EPOCH": "2025-12-03T08:48:46.117152", "MEAN_MOTION": 11.38006263, "ECCENTRICITY": 0.1345906, "INCLINATION": 99.5943, "RA_OF_ASC_NODE": 128.9482, "ARG_OF_PERICENTER": 47.2741, "MEAN_ANOMALY": 323.3965, "EPHEMERIS_TYPE": 0, "CLASSIFICATION_TYPE": "U", "NORAD_CAT_ID": 30239, "ELEMENT_SET_NO": 999, "REV_AT_EPOCH": 54428, "BSTAR": 0.011334, "MEAN_MOTION_DOT": 3.74e-05, "MEAN_MOTION_DDOT": 0}, "tle": {"line1": "1 30239U 99025WY  25337.36720043  .00003740  00000+0  11334-1 0  9993", "line2": "2 30239  99.5943 128.9482 1345906  47.2741 323.3965 11.38006263544289"}}, "geometry": {"type": "Point", "coordinates": [129.5244531035508, -0.27131405942006614]}}, {"type": "Feature", "properties": {"norad_id": 30241, "name": "FENGYUN 1C DEB", "group": "fengyun-1c-debris", "lat": -8.6883055506932, "lon": 112.31019479245515, "alt_km": 906.2159500160305, "timestamp": "2025-12-04T03:47:54.818133+00:00", "meta": {"OBJECT_NAME": "FENGYUN 1C DEB", "OBJECT_ID": "1999-025XA", "EPOCH": "2025-12-03T07:32:18.665088", "MEAN_MOTION": 14.09529822, "ECCENTRICITY": 0.0146847, "INCLINATION": 99.1481, "RA_OF_ASC_NODE": 110.0416, "ARG_OF_PERICENTER": 107.2991, "MEAN_ANOMALY": 284.3523, "EPHEMERIS_TYPE": 0, "CLASSIFICATION_TYPE": "U", "NORAD_CAT_ID": 30241, "ELEMENT_SET_NO": 999, "REV_AT_EPOCH": 96779, "BSTAR": 0.00042232, "MEAN_MOTION_DOT": 7.71e-06, "MEAN_MOTION_DDOT": 0}, "tle": {"line1": "1 30241U 99025XA  25337.31410492  .00000771  00000+0  42232-3 0  9999", "line2": "2 30241  99.1481 110.0416 0146847 107.2991 284.3523 14.09529822967793"}}, "geometry": {"type": "Point", "coordinates": [112.31019479245515, -8.6883055506932]}}]}